AVION KALUGA 650        
1 57195U 23091AF  26177.17876773  .00007025  00000+0  32457-3 0  9998
2 57195  97.5090 236.7187 0011836  82.2226 278.0352 15.20442773165390
HORS 2                  
1 57196U 23091AG  26177.17791260  .00015240  00000+0  49320-3 0  9991
2 57196  97.5092 244.3305 0008793  60.6948 299.5171 15.32106431165904
A-SEANSAT-PG1           
1 57197U 23091AH  26177.19027877  .00020448  00000+0  56124-3 0  9996
2 57197  97.5083 246.9647 0007630  57.4693 302.7287 15.37258326166094
SITRO-AIS 10 (BURDAEV)  
1 57199U 23091AK  26177.15828411  .00022870  00000+0  59421-3 0  9991
2 57199  97.5084 247.9162 0006769  52.5072 307.6788 15.38937035166147
SITRO-AIS 9 (SHCHUKIN)  
1 57201U 23091AM  26177.18757247  .00021108  00000+0  55768-3 0  9999
2 57201  97.5083 247.6690 0007065  52.5123 307.6763 15.38437236166130
UTMN 2 (RS27S)          
1 57203U 23091AP  26177.13889980  .00015362  00000+0  49476-3 0  9990
2 57203  97.5090 244.4845 0008688  56.7092 303.4981 15.32259314165914
SITRO-AIS 12 (SMIRENNIY)
1 57204U 23091AQ  26177.17647836  .00021473  00000+0  56195-3 0  9993
2 57204  97.5095 248.1304 0006566  47.3009 312.8788 15.38729934166150
SITRO-AIS 11 (SHEFFER)  
1 57208U 23091AU  26177.18739701  .00021618  00000+0  55786-3 0  9997
2 57208  97.5093 248.3940 0006434  46.9815 313.1968 15.39160655166170
H2SAT (HEINRICH HERTZ)  
1 57213U 23093A   26176.31122957  .00000011  00000+0  00000+0 0  9997
2 57213   0.0482 107.4304 0000848  17.0766 261.6799  1.00269986 10990
KUZGTU 1 (RS47S)        
1 57217U 23091AV  26177.19063755  .00015028  00000+0  51771-3 0  9995
2 57217  97.5068 241.7626 0011924  70.0536 290.1988 15.30056571165759
QIANKUN-1               
1 57422U 23103B   26175.14190629  .00029952  20502-5  35191-4 0  9996
2 57422  96.1516 219.4975 0033653 146.3074 214.0360 16.07644797168419
FENGYUN 3F              
1 57490U 23111A   26177.20516682  .00000030  00000+0  34332-4 0  9997
2 57490  98.6834 247.0458 0001552  86.7314 273.4040 14.19940442150146
HJ-2F                   
1 57519U 23116A   26177.19158308  .00008160  00000+0  35533-3 0  9994
2 57519  97.3841 182.2533 0008862  24.4553 335.7102 15.22441144160121
XRISM                   
1 57800U 23137A   26176.76981434  .00005063  00000+0  27781-3 0  9991
2 57800  31.0027 304.0050 0007833  50.1002 310.0325 15.12535305154167
METEOR-M2 4             
1 59051U 24039A   26177.18721169  .00000012  00000+0  24819-4 0  9996
2 59051  98.7013 136.3722 0007775 136.7485 223.4304 14.22430424120540
GRBBETA                 
1 60237U 24128C   26177.17962308  .00003387  00000+0  23759-3 0  9993
2 60237  61.9878 184.7144 0039494 136.5498 223.8719 15.06688449107622
TRANSPORTER-11 OBJECT A 
1 60468U 24149A   26177.16146468  .00010144  00000+0  32010-3 0  9991
2 60468  97.3733 257.0635 0003689 164.8407 195.2947 15.33044999103437
WARATAH SEED-1          
1 60469U 24149B   26177.16619987  .00015471  00000+0  44104-3 0  9998
2 60469  97.3692 257.7497 0002273 156.9638 203.1708 15.36158447103498
PHISAT 2                
1 60470U 24149C   26177.19686751  .00007781  00000+0  26090-3 0  9995
2 60470  97.3759 256.3631 0001946 156.1923 203.9409 15.31176067103370
LEMUR-2-TOMATOKECHUP    
1 60471U 24149D   26177.16202088  .00012580  00000+0  35859-3 0  9996
2 60471  97.3804 259.2320 0002220 158.1879 201.9460 15.36209181103540
CONNECTA IOT-1          
1 60472U 24149E   26177.15933403  .00004724  00000+0  20028-3 0  9991
2 60472  97.3760 253.2990 0000999 187.2692 172.8530 15.23604196103169
LOPEN                   
1 60473U 24149F   26177.16339247  .00017420  00000+0  43923-3 0  9995
2 60473  97.3782 260.6022 0001589 167.4759 192.6526 15.39932791103642
ROCK                    
1 60474U 24149G   26176.50019169  .00019366  00000+0  48841-3 0  9996
2 60474  97.3773 259.9487 0001870 169.1965 190.9322 15.39902864103542
CONNECTA IOT-3          
1 60475U 24149H   26177.18063775  .00004424  00000+0  18768-3 0  9998
2 60475  97.3737 253.0706 0002081 199.7949 160.3207 15.23616562103170
QUBE                    
1 60476U 24149J   26177.16230646  .00030630  00000+0  59446-3 0  9996
2 60476  97.3778 263.7702 0002554 168.9170 191.2137 15.47604092103850
WREN-1                  
1 60478U 24149L   26177.15619323  .00023675  00000+0  55837-3 0  9991
2 60478  97.3769 261.3642 0003926 211.0333 149.0683 15.41890470103706
TOMORROW-S1             
1 60479U 24149M   26177.14549132  .00008335  00000+0  26523-3 0  9997
2 60479  97.3753 257.5896 0002476 179.6441 180.4803 15.32837409103465
FLOCK 4BE-18            
1 60480U 24149N   26177.16603051  .00019781  00000+0  46343-3 0  9991
2 60480  97.3732 260.9904 0003699 200.4845 159.6254 15.42128514103695
FLOCK 4BE-7             
1 60481U 24149P   26177.18228957  .00024689  00000+0  60619-3 0  9997
2 60481  97.3762 260.3291 0002902 201.2030 158.9097 15.40667551103631
