OBJECT_NAME,OBJECT_ID,EPOCH,MEAN_MOTION,ECCENTRICITY,INCLINATION,RA_OF_ASC_NODE,ARG_OF_PERICENTER,MEAN_ANOMALY,EPHEMERIS_TYPE,CLASSIFICATION_TYPE,NORAD_CAT_ID,ELEMENT_SET_NO,REV_AT_EPOCH,BSTAR,MEAN_MOTION_DOT,MEAN_MOTION_DDOT
AVION KALUGA 650,2023-091AF,2026-06-26T04:17:25.531872,15.20442773,.0011836,97.5090,236.7187,82.2226,278.0352,0,U,57195,999,16539,.32457E-3,.7025E-4,0
HORS 2,2023-091AG,2026-06-26T04:16:11.648640,15.32106431,.0008793,97.5092,244.3305,60.6948,299.5171,0,U,57196,999,16590,.4932E-3,.1524E-3,0
A-SEANSAT-PG1,2023-091AH,2026-06-26T04:34:00.085728,15.37258326,.000763,97.5083,246.9647,57.4693,302.7287,0,U,57197,999,16609,.56124E-3,.20448E-3,0
SITRO-AIS 10 (BURDAEV),2023-091AK,2026-06-26T03:47:55.747104,15.38937035,.0006769,97.5084,247.9162,52.5072,307.6788,0,U,57199,999,16614,.59421E-3,.2287E-3,0
SITRO-AIS 9 (SHCHUKIN),2023-091AM,2026-06-26T04:30:06.261408,15.38437236,.0007065,97.5083,247.6690,52.5123,307.6763,0,U,57201,999,16613,.55768E-3,.21108E-3,0
UTMN 2 (RS27S),2023-091AP,2026-06-26T03:20:00.942720,15.32259314,.0008688,97.5090,244.4845,56.7092,303.4981,0,U,57203,999,16591,.49476E-3,.15362E-3,0
SITRO-AIS 12 (SMIRENNIY),2023-091AQ,2026-06-26T04:14:07.730304,15.38729934,.0006566,97.5095,248.1304,47.3009,312.8788,0,U,57204,999,16615,.56195E-3,.21473E-3,0
SITRO-AIS 11 (SHEFFER),2023-091AU,2026-06-26T04:29:51.101664,15.39160655,.0006434,97.5093,248.3940,46.9815,313.1968,0,U,57208,999,16617,.55786E-3,.21618E-3,0
H2SAT (HEINRICH HERTZ),2023-093A,2026-06-25T07:28:10.234848,1.00269986,.0000848,0.0482,107.4304,17.0766,261.6799,0,U,57213,999,1099,0,.11E-6,0
KUZGTU 1 (RS47S),2023-091AV,2026-06-26T04:34:31.084320,15.30056571,.0011924,97.5068,241.7626,70.0536,290.1988,0,U,57217,999,16575,.51771E-3,.15028E-3,0
QIANKUN-1,2023-103B,2026-06-24T03:24:20.703456,16.07644797,.00336534,96.1516,219.4975,146.3074,214.0360,0,U,57422,999,16841,.35190923E-4,.29952E-3,.2050203E-5
FENGYUN 3F,2023-111A,2026-06-26T04:55:26.413248,14.19940442,.0001552,98.6834,247.0458,86.7314,273.4040,0,U,57490,999,15014,.34332E-4,.3E-6,0
HJ-2F,2023-116A,2026-06-26T04:35:52.778112,15.22441144,.0008862,97.3841,182.2533,24.4553,335.7102,0,U,57519,999,16012,.35533E-3,.816E-4,0
XRISM,2023-137A,2026-06-25T18:28:31.958976,15.12535305,.0007833,31.0027,304.0050,50.1002,310.0325,0,U,57800,999,15416,.27781E-3,.5063E-4,0
METEOR-M2 4,2024-039A,2026-06-26T04:29:35.090016,14.22430424,.0007775,98.7013,136.3722,136.7485,223.4304,0,U,59051,999,12054,.24819E-4,.12E-6,0
GRBBETA,2024-128C,2026-06-26T04:18:39.434112,15.06688449,.0039494,61.9878,184.7144,136.5498,223.8719,0,U,60237,999,10762,.23759E-3,.3387E-4,0
TRANSPORTER-11 OBJECT A,2024-149A,2026-06-26T03:52:30.548352,15.33044999,.0003689,97.3733,257.0635,164.8407,195.2947,0,U,60468,999,10343,.3201E-3,.10144E-3,0
WARATAH SEED-1,2024-149B,2026-06-26T03:59:19.668768,15.36158447,.0002273,97.3692,257.7497,156.9638,203.1708,0,U,60469,999,10349,.44104E-3,.15471E-3,0
PHISAT 2,2024-149C,2026-06-26T04:43:29.352864,15.31176067,.0001946,97.3759,256.3631,156.1923,203.9409,0,U,60470,999,10337,.2609E-3,.7781E-4,0
LEMUR-2-TOMATOKECHUP,2024-149D,2026-06-26T03:53:18.604032,15.36209181,.000222,97.3804,259.2320,158.1879,201.9460,0,U,60471,999,10354,.35859E-3,.1258E-3,0
CONNECTA IOT-1,2024-149E,2026-06-26T03:49:26.460192,15.23604196,.0000999,97.3760,253.2990,187.2692,172.8530,0,U,60472,999,10316,.20028E-3,.4724E-4,0
LOPEN,2024-149F,2026-06-26T03:55:17.109408,15.39932791,.0001589,97.3782,260.6022,167.4759,192.6526,0,U,60473,999,10364,.43923E-3,.1742E-3,0
ROCK,2024-149G,2026-06-25T12:00:16.562016,15.39902864,.000187,97.3773,259.9487,169.1965,190.9322,0,U,60474,999,10354,.48841E-3,.19366E-3,0
CONNECTA IOT-3,2024-149H,2026-06-26T04:20:07.101600,15.23616562,.0002081,97.3737,253.0706,199.7949,160.3207,0,U,60475,999,10317,.18768E-3,.4424E-4,0
QUBE,2024-149J,2026-06-26T03:53:43.278144,15.47604092,.0002554,97.3778,263.7702,168.9170,191.2137,0,U,60476,999,10385,.59446E-3,.3063E-3,0
WREN-1,2024-149L,2026-06-26T03:44:55.095072,15.41890470,.0003926,97.3769,261.3642,211.0333,149.0683,0,U,60478,999,10370,.55837E-3,.23675E-3,0
TOMORROW-S1,2024-149M,2026-06-26T03:29:30.450048,15.32837409,.0002476,97.3753,257.5896,179.6441,180.4803,0,U,60479,999,10346,.26523E-3,.8335E-4,0
FLOCK 4BE-18,2024-149N,2026-06-26T03:59:05.036064,15.42128514,.0003699,97.3732,260.9904,200.4845,159.6254,0,U,60480,999,10369,.46343E-3,.19781E-3,0
FLOCK 4BE-7,2024-149P,2026-06-26T04:22:29.818848,15.40667551,.0002902,97.3762,260.3291,201.2030,158.9097,0,U,60481,999,10363,.60619E-3,.24689E-3,0
